{"type": "FeatureCollection", "features": [ {"type": "Feature", "properties": {"norad_id": 17070, "name": "POLAR BEAR", "group": "nnss", "lat": 5.9869966339682925, "lon": -176.0613737077984, "alt_km": 998.8277340392997, "timestamp": "2025-12-09T14:52:26.430423+00:00", "meta": {"OBJECT_NAME": "POLAR BEAR", "OBJECT_ID": "1986-088A", "EPOCH": "2025-12-09T03:11:16.322784", "MEAN_MOTION": 13.75249676, "ECCENTRICITY": 0.00407509, "INCLINATION": 89.6177, "RA_OF_ASC_NODE": 183.9181, "ARG_OF_PERICENTER": 129.7063, "MEAN_ANOMALY": 347.5564, "EPHEMERIS_TYPE": 0, "CLASSIFICATION_TYPE": "U", "NORAD_CAT_ID": 17070, "ELEMENT_SET_NO": 999, "REV_AT_EPOCH": 95929, "BSTAR": 0.00014111129, "MEAN_MOTION_DOT": 1.48e-06, "MEAN_MOTION_DDOT": 0}, "tle": {"line1": "1 17070U 86088A   25343.13282781  .00000148  00000+0  14111-3 0  9997", "line2": "2 17070  89.6177 183.9181 0040750 129.7063 347.5564 13.75249676959298"}}, "geometry": {"type": "Point", "coordinates": [-176.0613737077984, 5.9869966339682925]}}, {"type": "Feature", "properties": {"norad_id": 18361, "name": "OSCAR 27", "group": "nnss", "lat": -64.57611228552577, "lon": -101.63209570515419, "alt_km": 1023.2219081729354, "timestamp": "2025-12-09T14:52:26.430434+00:00", "meta": {"OBJECT_NAME": "OSCAR 27", "OBJECT_ID": "1987-080A", "EPOCH": "2025-12-09T06:30:57.340800", "MEAN_MOTION": 13.44905724, "ECCENTRICITY": 0.01026661, "INCLINATION": 90.3742, "RA_OF_ASC_NODE": 79.1426, "ARG_OF_PERICENTER": 233.8462, "MEAN_ANOMALY": 125.3154, "EPHEMERIS_TYPE": 0, "CLASSIFICATION_TYPE": "U", "NORAD_CAT_ID": 18361, "ELEMENT_SET_NO": 999, "REV_AT_EPOCH": 87510, "BSTAR": 0.00031081347, "MEAN_MOTION_DOT": 1.96e-06, "MEAN_MOTION_DDOT": 0}, "tle": {"line1": "1 18361U 87080A   25343.27149700  .00000196  00000+0  31081-3 0  9990", "line2": "2 18361  90.3742  79.1426 0102666 233.8462 125.3154 13.44905724875105"}}, "geometry": {"type": "Point", "coordinates": [-101.63209570515419, -64.57611228552577]}}, {"type": "Feature", "properties": {"norad_id": 18362, "name": "OSCAR 29", "group": "nnss", "lat": -81.74552335829235, "lon": -102.97584796531079, "alt_km": 1023.0300293914916, "timestamp": "2025-12-09T14:52:26.430446+00:00", "meta": {"OBJECT_NAME": "OSCAR 29", "OBJECT_ID": "1987-080B", "EPOCH": "2025-12-09T06:41:55.137696", "MEAN_MOTION": 13.44447552, "ECCENTRICITY": 0.01037775, "INCLINATION": 90.3754, "RA_OF_ASC_NODE": 79.6015, "ARG_OF_PERICENTER": 257.2227, "MEAN_ANOMALY": 156.6742, "EPHEMERIS_TYPE": 0, "CLASSIFICATION_TYPE": "U", "NORAD_CAT_ID": 18362, "ELEMENT_SET_NO": 999, "REV_AT_EPOCH": 87463, "BSTAR": 0.00028124544, "MEAN_MOTION_DOT": 1.76e-06, "MEAN_MOTION_DDOT": 0}, "tle": {"line1": "1 18362U 87080B   25343.27911039  .00000176  00000+0  28125-3 0  9996", "line2": "2 18362  90.3754  79.6015 0103777 257.2227 156.6742 13.44447552874638"}}, "geometry": {"type": "Point", "coordinates": [-102.97584796531079, -81.74552335829235]}}, {"type": "Feature", "properties": {"norad_id": 19070, "name": "OSCAR 23", "group": "nnss", "lat": -45.23660497379878, "lon": -164.02832687617695, "alt_km": 1046.4025158401319, "timestamp": "2025-12-09T14:52:26.430457+00:00", "meta": {"OBJECT_NAME": "OSCAR 23", "OBJECT_ID": "1988-033A", "EPOCH": "2025-12-09T03:13:56.989632", "MEAN_MOTION": 13.27786357, "ECCENTRICITY": 0.01892255, "INCLINATION": 90.3215, "RA_OF_ASC_NODE": 16.2809, "ARG_OF_PERICENTER": 189.9548, "MEAN_ANOMALY": 236.6533, "EPHEMERIS_TYPE": 0, "CLASSIFICATION_TYPE": "U", "NORAD_CAT_ID": 19070, "ELEMENT_SET_NO": 999, "REV_AT_EPOCH": 82205, "BSTAR": 0.00017797339, "MEAN_MOTION_DOT": 9.7e-07, "MEAN_MOTION_DDOT": 0}, "tle": {"line1": "1 19070U 88033A   25343.13468738  .00000097  00000+0  17797-3 0  9995", "line2": "2 19070  90.3215  16.2809 0189225 189.9548 236.6533 13.27786357822050"}}, "geometry": {"type": "Point", "coordinates": [-164.02832687617695, -45.23660497379878]}}, {"type": "Feature", "properties": {"norad_id": 19071, "name": "OSCAR 32", "group": "nnss", "lat": -26.95942795718623, "lon": 16.591642044318633, "alt_km": 1290.9108593065712, "timestamp": "2025-12-09T14:52:26.430468+00:00", "meta": {"OBJECT_NAME": "OSCAR 32", "OBJECT_ID": "1988-033B", "EPOCH": "2025-12-09T07:50:13.518240", "MEAN_MOTION": 13.27953385, "ECCENTRICITY": 0.01880802, "INCLINATION": 90.322, "RA_OF_ASC_NODE": 16.4186, "ARG_OF_PERICENTER": 176.2707, "MEAN_ANOMALY": 195.1563, "EPHEMERIS_TYPE": 0, "CLASSIFICATION_TYPE": "U", "NORAD_CAT_ID": 19071, "ELEMENT_SET_NO": 999, "REV_AT_EPOCH": 82220, "BSTAR": 0.00020745371, "MEAN_MOTION_DOT": 1.12e-06, "MEAN_MOTION_DDOT": 0}, "tle": {"line1": "1 19071U 88033B   25343.32654535  .00000112  00000+0  20745-3 0  9994", "line2": "2 19071  90.3220  16.4186 0188080 176.2707 195.1563 13.27953385822207"}}, "geometry": {"type": "Point", "coordinates": [16.591642044318633, -26.95942795718623]}}, {"type": "Feature", "properties": {"norad_id": 19223, "name": "NOVA 2", "group": "nnss", "lat": -45.78814232809468, "lon": -101.71045228091796, "alt_km": 1202.1662444006788, "timestamp": "2025-12-09T14:52:26.430478+00:00", "meta": {"OBJECT_NAME": "NOVA 2", "OBJECT_ID": "1988-052A", "EPOCH": "2025-12-09T06:45:01.612224", "MEAN_MOTION": 13.22935399, "ECCENTRICITY": 0.00308766, "INCLINATION": 89.9871, "RA_OF_ASC_NODE": 78.2767, "ARG_OF_PERICENTER": 26.2774, "MEAN_ANOMALY": 28.4408, "EPHEMERIS_TYPE": 0, "CLASSIFICATION_TYPE": "U", "NORAD_CAT_ID": 19223, "ELEMENT_SET_NO": 999, "REV_AT_EPOCH": 80902, "BSTAR": 0.00023236111, "MEAN_MOTION_DOT": 1.07e-06, "MEAN_MOTION_DDOT": 0}, "tle": {"line1": "1 19223U 88052A   25343.28126866  .00000107  00000+0  23236-3 0  9992", "line2": "2 19223  89.9871  78.2767 0030876  26.2774  28.4408 13.22935399809021"}}, "geometry": {"type": "Point", "coordinates": [-101.71045228091796, -45.78814232809468]}}, {"type": "Feature", "properties": {"norad_id": 19419, "name": "OSCAR 25", "group": "nnss", "lat": 81.063536048103, "lon": 20.011890359816736, "alt_km": 1162.3308716684387, "timestamp": "2025-12-09T14:52:26.430489+00:00", "meta": {"OBJECT_NAME": "OSCAR 25", "OBJECT_ID": "1988-074A", "EPOCH": "2025-12-09T04:03:49.083840", "MEAN_MOTION": 13.42622336, "ECCENTRICITY": 0.00943128, "INCLINATION": 90.0349, "RA_OF_ASC_NODE": 20.2324, "ARG_OF_PERICENTER": 256.2044, "MEAN_ANOMALY": 169.1401, "EPHEMERIS_TYPE": 0, "CLASSIFICATION_TYPE": "U", "NORAD_CAT_ID": 19419, "ELEMENT_SET_NO": 999, "REV_AT_EPOCH": 82592, "BSTAR": 0.00022175598, "MEAN_MOTION_DOT": 1.37e-06, "MEAN_MOTION_DDOT": 0}, "tle": {"line1": "1 19419U 88074A   25343.16931810  .00000137  00000+0  22176-3 0  9998", "line2": "2 19419  90.0349  20.2324 0094312 256.2044 169.1401 13.42622336825926"}}, "geometry": {"type": "Point", "coordinates": [20.011890359816736, 81.063536048103]}}, {"type": "Feature", "properties": {"norad_id": 19420, "name": "OSCAR 31", "group": "nnss", "lat": -33.665767058899974, "lon": 20.607914924140605, "alt_km": 1090.1576467928007, "timestamp": "2025-12-09T14:52:26.430499+00:00", "meta": {"OBJECT_NAME": "OSCAR 31", "OBJECT_ID": "1988-074B", "EPOCH": "2025-12-09T04:38:54.525696", "MEAN_MOTION": 13.42583784, "ECCENTRICITY": 0.00925908, "INCLINATION": 90.0367, "RA_OF_ASC_NODE": 20.5819, "ARG_OF_PERICENTER": 250.2365, "MEAN_ANOMALY": 177.0861, "EPHEMERIS_TYPE": 0, "CLASSIFICATION_TYPE": "U", "NORAD_CAT_ID": 19420, "ELEMENT_SET_NO": 999, "REV_AT_EPOCH": 82603, "BSTAR": 0.00019415559, "MEAN_MOTION_DOT": 1.21e-06, "MEAN_MOTION_DDOT": 0}, "tle": {"line1": "1 19420U 88074B   25343.19368664  .00000121  00000+0  19416-3 0  9990", "line2": "2 19420  90.0367  20.5819 0092590 250.2365 177.0861 13.42583784826030"}}, "geometry": {"type": "Point", "coordinates": [20.607914924140605, -33.665767058899974]}}]}